[{"COMMENT":"GENERATED VIA SPACETRACK.ORG API","ORIGINATOR":"18 SPCS","NORAD_CAT_ID":"43476","OBJECT_NAME":"GRACE-FO 1","OBJECT_TYPE":"PAYLOAD","CLASSIFICATION_TYPE":"U","INTLDES":"18047A","EPOCH":"2023-11-03 21:35:28","EPOCH_MICROSECONDS":"29408","MEAN_MOTION":"15.2722836","ECCENTRICITY":"0.0011938","INCLINATION":"88.9829","RA_OF_ASC_NODE":"330.1794","ARG_OF_PERICENTER":"208.5262","MEAN_ANOMALY":"151.5336","EPHEMERIS_TYPE":"0","ELEMENT_SET_NO":"999","REV_AT_EPOCH":"30331","BSTAR":"0.00015346","MEAN_MOTION_DOT":"0.00004128","MEAN_MOTION_DDOT":"0","FILE":"4068824","TLE_LINE0":"0 GRACE-FO 1","TLE_LINE1":"1 43476U 18047A   23307.89962997  .00004128  00000-0  15346-3 0  9995","TLE_LINE2":"2 43476  88.9829 330.1794 0011938 208.5262 151.5336 15.27228360303314","OBJECT_ID":"2018-047A","OBJECT_NUMBER":"43476","SEMIMAJOR_AXIS":"6862.239","PERIOD":"94.288","APOGEE":"492.296","PERIGEE":"475.912","DECAYED":"0"},{"COMMENT":"GENERATED VIA SPACETRACK.ORG API","ORIGINATOR":"18 SPCS","NORAD_CAT_ID":"43476","OBJECT_NAME":"GRACE-FO 1","OBJECT_TYPE":"PAYLOAD","CLASSIFICATION_TYPE":"U","INTLDES":"18047A","EPOCH":"2023-11-04 13:19:00","EPOCH_MICROSECONDS":"717888","MEAN_MOTION":"15.27234386","ECCENTRICITY":"0.0012044","INCLINATION":"88.983","RA_OF_ASC_NODE":"330.0898","ARG_OF_PERICENTER":"205.7105","MEAN_ANOMALY":"154.3547","EPHEMERIS_TYPE":"0","ELEMENT_SET_NO":"999","REV_AT_EPOCH":"30341","BSTAR":"0.00016665","MEAN_MOTION_DOT":"0.00004482","MEAN_MOTION_DDOT":"0","FILE":"4070271","TLE_LINE0":"0 GRACE-FO 1","TLE_LINE1":"1 43476U 18047A   23308.55486942  .00004482  00000-0  16665-3 0  9998","TLE_LINE2":"2 43476  88.9830 330.0898 0012044 205.7105 154.3547 15.27234386303415","OBJECT_ID":"2018-047A","OBJECT_NUMBER":"43476","SEMIMAJOR_AXIS":"6862.221","PERIOD":"94.288","APOGEE":"492.351","PERIGEE":"475.821","DECAYED":"0"},{"COMMENT":"GENERATED VIA SPACETRACK.ORG API","ORIGINATOR":"18 SPCS","NORAD_CAT_ID":"43476","OBJECT_NAME":"GRACE-FO 1","OBJECT_TYPE":"PAYLOAD","CLASSIFICATION_TYPE":"U","INTLDES":"18047A","EPOCH":"2023-11-04 19:36:25","EPOCH_MICROSECONDS":"714656","MEAN_MOTION":"15.27237786","ECCENTRICITY":"0.0012092","INCLINATION":"88.983","RA_OF_ASC_NODE":"330.054","ARG_OF_PERICENTER":"204.6089","MEAN_ANOMALY":"155.4585","EPHEMERIS_TYPE":"0","ELEMENT_SET_NO":"999","REV_AT_EPOCH":"30345","BSTAR":"0.00018497","MEAN_MOTION_DOT":"0.00004972","MEAN_MOTION_DDOT":"0","FILE":"4070338","TLE_LINE0":"0 GRACE-FO 1","TLE_LINE1":"1 43476U 18047A   23308.81696429  .00004972  00000-0  18497-3 0  9999","TLE_LINE2":"2 43476  88.9830 330.0540 0012092 204.6089 155.4585 15.27237786303456","OBJECT_ID":"2018-047A","OBJECT_NUMBER":"43476","SEMIMAJOR_AXIS":"6862.211","PERIOD":"94.288","APOGEE":"492.374","PERIGEE":"475.778","DECAYED":"0"},{"COMMENT":"GENERATED VIA SPACETRACK.ORG API","ORIGINATOR":"18 SPCS","NORAD_CAT_ID":"43476","OBJECT_NAME":"GRACE-FO 1","OBJECT_TYPE":"PAYLOAD","CLASSIFICATION_TYPE":"U","INTLDES":"18047A","EPOCH":"2023-11-04 21:10:46","EPOCH_MICROSECONDS":"958016","MEAN_MOTION":"15.27238439","ECCENTRICITY":"0.0012109","INCLINATION":"88.983","RA_OF_ASC_NODE":"330.045","ARG_OF_PERICENTER":"204.3362","MEAN_ANOMALY":"155.7317","EPHEMERIS_TYPE":"0","ELEMENT_SET_NO":"999","REV_AT_EPOCH":"30346","BSTAR":"0.00018607","MEAN_MOTION_DOT":"0.00005001","MEAN_MOTION_DDOT":"0","FILE":"4070865","TLE_LINE0":"0 GRACE-FO 1","TLE_LINE1":"1 43476U 18047A   23308.88248794  .00005001  00000-0  18607-3 0  9991","TLE_LINE2":"2 43476  88.9830 330.0450 0012109 204.3362 155.7317 15.27238439303469","OBJECT_ID":"2018-047A","OBJECT_NUMBER":"43476","SEMIMAJOR_AXIS":"6862.209","PERIOD":"94.288","APOGEE":"492.383","PERIGEE":"475.765","DECAYED":"0"},{"COMMENT":"GENERATED VIA SPACETRACK.ORG API","ORIGINATOR":"18 SPCS","NORAD_CAT_ID":"43476","OBJECT_NAME":"GRACE-FO 1","OBJECT_TYPE":"PAYLOAD","CLASSIFICATION_TYPE":"U","INTLDES":"18047A","EPOCH":"2023-11-05 12:54:19","EPOCH_MICROSECONDS":"255968","MEAN_MOTION":"15.27245232","ECCENTRICITY":"0.0012241","INCLINATION":"88.983","RA_OF_ASC_NODE":"329.9554","ARG_OF_PERICENTER":"201.5196","MEAN_ANOMALY":"158.554","EPHEMERIS_TYPE":"0","ELEMENT_SET_NO":"999","REV_AT_EPOCH":"30356","BSTAR":"0.00020083","MEAN_MOTION_DOT":"0.00005397","MEAN_MOTION_DDOT":"0","FILE":"4072138","TLE_LINE0":"0 GRACE-FO 1","TLE_LINE1":"1 43476U 18047A   23309.53772287  .00005397  00000-0  20083-3 0  9992","TLE_LINE2":"2 43476  88.9830 329.9554 0012241 201.5196 158.5540 15.27245232303561","OBJECT_ID":"2018-047A","OBJECT_NUMBER":"43476","SEMIMAJOR_AXIS":"6862.189","PERIOD":"94.287","APOGEE":"492.454","PERIGEE":"475.654","DECAYED":"0"},{"COMMENT":"GENERATED VIA SPACETRACK.ORG API","ORIGINATOR":"18 SPCS","NORAD_CAT_ID":"43476","OBJECT_NAME":"GRACE-FO 1","OBJECT_TYPE":"PAYLOAD","CLASSIFICATION_TYPE":"U","INTLDES":"18047A","EPOCH":"2023-11-05 22:20:26","EPOCH_MICROSECONDS":"455200","MEAN_MOTION":"15.27255401","ECCENTRICITY":"0.0012321","INCLINATION":"88.9831","RA_OF_ASC_NODE":"329.9017","ARG_OF_PERICENTER":"199.8202","MEAN_ANOMALY":"160.2571","EPHEMERIS_TYPE":"0","ELEMENT_SET_NO":"999","REV_AT_EPOCH":"30362","BSTAR":"0.0003318","MEAN_MOTION_DOT":"0.00008902","MEAN_MOTION_DDOT":"0","FILE":"4072675","TLE_LINE0":"0 GRACE-FO 1","TLE_LINE1":"1 43476U 18047A   23309.93086175  .00008902  00000-0  33180-3 0  9997","TLE_LINE2":"2 43476  88.9831 329.9017 0012321 199.8202 160.2571 15.27255401303622","OBJECT_ID":"2018-047A","OBJECT_NUMBER":"43476","SEMIMAJOR_AXIS":"6862.158","PERIOD":"94.287","APOGEE":"492.478","PERIGEE":"475.568","DECAYED":"0"},{"COMMENT":"GENERATED VIA SPACETRACK.ORG API","ORIGINATOR":"18 SPCS","NORAD_CAT_ID":"43476","OBJECT_NAME":"GRACE-FO 1","OBJECT_TYPE":"PAYLOAD","CLASSIFICATION_TYPE":"U","INTLDES":"18047A","EPOCH":"2023-11-06 03:03:29","EPOCH_MICROSECONDS":"964960","MEAN_MOTION":"15.27258998","ECCENTRICITY":"0.0012357","INCLINATION":"88.9831","RA_OF_ASC_NODE":"329.8748","ARG_OF_PERICENTER":"199.0173","MEAN_ANOMALY":"161.0617","EPHEMERIS_TYPE":"0","ELEMENT_SET_NO":"999","REV_AT_EPOCH":"30365","BSTAR":"0.00033588","MEAN_MOTION_DOT":"0.00009012","MEAN_MOTION_DDOT":"0","FILE":"4072700","TLE_LINE0":"0 GRACE-FO 1","TLE_LINE1":"1 43476U 18047A   23310.12743015  .00009012  00000-0  33588-3 0  9998","TLE_LINE2":"2 43476  88.9831 329.8748 0012357 199.0173 161.0617 15.27258998303657","OBJECT_ID":"2018-047A","OBJECT_NUMBER":"43476","SEMIMAJOR_AXIS":"6862.147","PERIOD":"94.287","APOGEE":"492.492","PERIGEE":"475.533","DECAYED":"0"},{"COMMENT":"GENERATED VIA SPACETRACK.ORG API","ORIGINATOR":"18 SPCS","NORAD_CAT_ID":"43476","OBJECT_NAME":"GRACE-FO 1","OBJECT_TYPE":"PAYLOAD","CLASSIFICATION_TYPE":"U","INTLDES":"18047A","EPOCH":"2023-11-06 14:03:58","EPOCH_MICROSECONDS":"94784","MEAN_MOTION":"15.27264391","ECCENTRICITY":"0.0012439","INCLINATION":"88.9831","RA_OF_ASC_NODE":"329.812","ARG_OF_PERICENTER":"197.0871","MEAN_ANOMALY":"162.9961","EPHEMERIS_TYPE":"0","ELEMENT_SET_NO":"999","REV_AT_EPOCH":"30372","BSTAR":"0.00029242","MEAN_MOTION_DOT":"0.00007851","MEAN_MOTION_DDOT":"0","FILE":"4074285","TLE_LINE0":"0 GRACE-FO 1","TLE_LINE1":"1 43476U 18047A   23310.58608906  .00007851  00000-0  29242-3 0  9998","TLE_LINE2":"2 43476  88.9831 329.8120 0012439 197.0871 162.9961 15.27264391303729","OBJECT_ID":"2018-047A","OBJECT_NUMBER":"43476","SEMIMAJOR_AXIS":"6862.131","PERIOD":"94.286","APOGEE":"492.532","PERIGEE":"475.461","DECAYED":"0"},{"COMMENT":"GENERATED VIA SPACETRACK.ORG API","ORIGINATOR":"18 SPCS","NORAD_CAT_ID":"43476","OBJECT_NAME":"GRACE-FO 1","OBJECT_TYPE":"PAYLOAD","CLASSIFICATION_TYPE":"U","INTLDES":"18047A","EPOCH":"2023-11-06 21:55:43","EPOCH_MICROSECONDS":"818240","MEAN_MOTION":"15.27266972","ECCENTRICITY":"0.0012507","INCLINATION":"88.983","RA_OF_ASC_NODE":"329.7672","ARG_OF_PERICENTER":"195.7371","MEAN_ANOMALY":"164.3491","EPHEMERIS_TYPE":"0","ELEMENT_SET_NO":"999","REV_AT_EPOCH":"30377","BSTAR":"0.00024205","MEAN_MOTION_DOT":"0.00006504","MEAN_MOTION_DDOT":"0","FILE":"4074934","TLE_LINE0":"0 GRACE-FO 1","TLE_LINE1":"1 43476U 18047A   23310.91370160  .00006504  00000-0  24205-3 0  9991","TLE_LINE2":"2 43476  88.9830 329.7672 0012507 195.7371 164.3491 15.27266972303771","OBJECT_ID":"2018-047A","OBJECT_NUMBER":"43476","SEMIMAJOR_AXIS":"6862.124","PERIOD":"94.286","APOGEE":"492.571","PERIGEE":"475.406","DECAYED":"0"},{"COMMENT":"GENERATED VIA SPACETRACK.ORG API","ORIGINATOR":"18 SPCS","NORAD_CAT_ID":"43476","OBJECT_NAME":"GRACE-FO 1","OBJECT_TYPE":"PAYLOAD","CLASSIFICATION_TYPE":"U","INTLDES":"18047A","EPOCH":"2023-11-07 10:30:32","EPOCH_MICROSECONDS":"770656","MEAN_MOTION":"15.27273719","ECCENTRICITY":"0.0012609","INCLINATION":"88.9828","RA_OF_ASC_NODE":"329.6955","ARG_OF_PERICENTER":"193.6122","MEAN_ANOMALY":"166.4789","EPHEMERIS_TYPE":"0","ELEMENT_SET_NO":"999","REV_AT_EPOCH":"30385","BSTAR":"0.00023252","MEAN_MOTION_DOT":"0.0000625","MEAN_MOTION_DDOT":"0","FILE":"4075764","TLE_LINE0":"0 GRACE-FO 1","TLE_LINE1":"1 43476U 18047A   23311.43787929  .00006250  00000-0  23252-3 0  9993","TLE_LINE2":"2 43476  88.9828 329.6955 0012609 193.6122 166.4789 15.27273719303854","OBJECT_ID":"2018-047A","OBJECT_NUMBER":"43476","SEMIMAJOR_AXIS":"6862.103","PERIOD":"94.286","APOGEE":"492.621","PERIGEE":"475.316","DECAYED":"0"}]